*******************************************************************************
Ephemeris / WWW_USER Tue Mar 11 05:42:25 2025 Pasadena, USA      / Horizons    
*******************************************************************************
Target body name: Hale-Bopp (C/1995 O1)           {source: JPL#226}
Center body name: Earth (399)                     {source: DE441}
Center-site name: Gemini South Obs., Cerro Pachon
*******************************************************************************
Start time      : A.D. 2018-Sep-27 22:50:00.0000 UT      
Stop  time      : A.D. 2018-Sep-28 10:16:00.0000 UT      
Step-size       : 1 minutes
*******************************************************************************
Target pole/equ : undefined
Target radii    : 30. km                                                       
Center geodetic : 289.2634, -30.2406227, 2.71233  {E-lon(deg),Lat(deg),Alt(km)}
Center cylindric: 289.2634,5517.21435,-3194.81213 {E-lon(deg),Dxy(km),Dz(km)}
Center pole/equ : ITRF93                          {East-longitude positive}
Center radii    : 6378.137, 6378.137, 6356.752 km {Equator_a, b, pole_c}       
Target primary  : Sun
Vis. interferer : MOON (R_eq= 1737.400) km        {source: DE441}
Rel. light bend : Sun                             {source: DE441}
Rel. lght bnd GM: 1.3271E+11 km^3/s^2                                          
Small-body perts: Yes                             {source: SB441-N16}
Atmos refraction: NO (AIRLESS)
RA format       : HMS
Time format     : CAL 
Calendar mode   : Mixed Julian/Gregorian
RTS-only print  : NO       
EOP file        : eop.250310.p250606                                           
EOP coverage    : DATA-BASED 1962-JAN-20 TO 2025-MAR-10. PREDICTS-> 2025-JUN-05
Units conversion: 1 au= 149597870.700 km, c= 299792.458 km/s, 1 day= 86400.0 s 
Table cut-offs 1: Elevation (-90.0deg=NO ),Airmass (>38.000=NO), Daylight (YES)
Table cut-offs 2: Solar elongation (  0.0,180.0=NO ),Local Hour Angle( 0.0=NO )
Table cut-offs 3: RA/DEC angular rate (     0.0=NO )                           
*******************************************************************************
Initial IAU76/J2000 heliocentric ecliptic osculating elements (au, days, deg.):
  EPOCH=  2459837.5 ! 2022-Sep-15.0000000 (TDB)    RMSW= n.a.                  
   EC= .9949810027633206   QR= .890537663547794    TP= 2450537.1349071441      
   OM= 282.7334213961641   W= 130.4146670659176    IN= 89.28759424740302       
  Equivalent ICRF heliocentric cartesian coordinates (au, au/d):
   X= 3.907631452214869E+00  Y=-1.373895334060347E+00  Z=-4.624358508575312E+01
  VX= 3.778244409519935E-04 VY=-5.803173067116371E-04 VZ=-3.255716412104052E-03
Comet physical (GM= km^3/s^2; RAD= km):                                        
   GM= n.a.                RAD= 30.                                            
   M1=  4.8      M2=  n.a.     k1=  4.     k2= n.a.     PHCOF= n.a.            
*******************************************************************************
 Date__(UT)__HR:MN     R.A._________(ICRF)_________DEC
******************************************************
$$SOE
 2018-Sep-27 22:50 C   23 02 51.910425 -86 39 43.77331
 2018-Sep-27 22:51 C   23 02 51.849714 -86 39 43.75548
 2018-Sep-27 22:52 C   23 02 51.788999 -86 39 43.73764
 2018-Sep-27 22:53 C   23 02 51.728281 -86 39 43.71980
 2018-Sep-27 22:54 C   23 02 51.667560 -86 39 43.70197
 2018-Sep-27 22:55 C   23 02 51.606835 -86 39 43.68412
 2018-Sep-27 22:56 C   23 02 51.546108 -86 39 43.66628
 2018-Sep-27 22:57 C   23 02 51.485377 -86 39 43.64843
 2018-Sep-27 22:58 C   23 02 51.424643 -86 39 43.63058
 2018-Sep-27 22:59 C   23 02 51.363905 -86 39 43.61273
 2018-Sep-27 23:00 C   23 02 51.303165 -86 39 43.59488
 2018-Sep-27 23:01 C   23 02 51.242421 -86 39 43.57702
 2018-Sep-27 23:02 C   23 02 51.181674 -86 39 43.55917
 2018-Sep-27 23:03 C   23 02 51.120924 -86 39 43.54130
 2018-Sep-27 23:04 C   23 02 51.060171 -86 39 43.52344
 2018-Sep-27 23:05 C   23 02 50.999415 -86 39 43.50558
 2018-Sep-27 23:06 C   23 02 50.938655 -86 39 43.48771
 2018-Sep-27 23:07 N   23 02 50.877892 -86 39 43.46984
 2018-Sep-27 23:08 N   23 02 50.817127 -86 39 43.45196
 2018-Sep-27 23:09 N   23 02 50.756358 -86 39 43.43409
 2018-Sep-27 23:10 N   23 02 50.695585 -86 39 43.41621
 2018-Sep-27 23:11 N   23 02 50.634810 -86 39 43.39833
 2018-Sep-27 23:12 N   23 02 50.574032 -86 39 43.38045
 2018-Sep-27 23:13 N   23 02 50.513251 -86 39 43.36256
 2018-Sep-27 23:14 N   23 02 50.452466 -86 39 43.34467
 2018-Sep-27 23:15 N   23 02 50.391679 -86 39 43.32678
 2018-Sep-27 23:16 N   23 02 50.330888 -86 39 43.30889
 2018-Sep-27 23:17 N   23 02 50.270094 -86 39 43.29099
 2018-Sep-27 23:18 N   23 02 50.209298 -86 39 43.27310
 2018-Sep-27 23:19 N   23 02 50.148498 -86 39 43.25520
 2018-Sep-27 23:20 N   23 02 50.087695 -86 39 43.23729
 2018-Sep-27 23:21 N   23 02 50.026889 -86 39 43.21939
 2018-Sep-27 23:22 N   23 02 49.966080 -86 39 43.20148
 2018-Sep-27 23:23 N   23 02 49.905268 -86 39 43.18356
 2018-Sep-27 23:24 N   23 02 49.844454 -86 39 43.16565
 2018-Sep-27 23:25 N   23 02 49.783636 -86 39 43.14773
 2018-Sep-27 23:26 N   23 02 49.722815 -86 39 43.12981
 2018-Sep-27 23:27 N   23 02 49.661991 -86 39 43.11189
 2018-Sep-27 23:28 N   23 02 49.601164 -86 39 43.09397
 2018-Sep-27 23:29 N   23 02 49.540335 -86 39 43.07604
 2018-Sep-27 23:30 N   23 02 49.479502 -86 39 43.05811
 2018-Sep-27 23:31 N   23 02 49.418666 -86 39 43.04017
 2018-Sep-27 23:32 N   23 02 49.357828 -86 39 43.02224
 2018-Sep-27 23:33 N   23 02 49.296986 -86 39 43.00430
 2018-Sep-27 23:34 N   23 02 49.236142 -86 39 42.98636
 2018-Sep-27 23:35 A   23 02 49.175295 -86 39 42.96841
 2018-Sep-27 23:36 A   23 02 49.114445 -86 39 42.95046
 2018-Sep-27 23:37 A   23 02 49.053592 -86 39 42.93251
 2018-Sep-27 23:38 A   23 02 48.992736 -86 39 42.91456
 2018-Sep-27 23:39 A   23 02 48.931877 -86 39 42.89660
 2018-Sep-27 23:40 A   23 02 48.871016 -86 39 42.87864
 2018-Sep-27 23:41 A   23 02 48.810151 -86 39 42.86068
 2018-Sep-27 23:42 A   23 02 48.749284 -86 39 42.84272
 2018-Sep-27 23:43 A   23 02 48.688414 -86 39 42.82475
 2018-Sep-27 23:44 A   23 02 48.627541 -86 39 42.80678
 2018-Sep-27 23:45 A   23 02 48.566665 -86 39 42.78881
 2018-Sep-27 23:46 A   23 02 48.505787 -86 39 42.77083
 2018-Sep-27 23:47 A   23 02 48.444906 -86 39 42.75285
 2018-Sep-27 23:48 A   23 02 48.384022 -86 39 42.73487
 2018-Sep-27 23:49 A   23 02 48.323135 -86 39 42.71688
 2018-Sep-27 23:50 A   23 02 48.262246 -86 39 42.69889
 2018-Sep-27 23:51 A   23 02 48.201353 -86 39 42.68090
 2018-Sep-27 23:52 A   23 02 48.140458 -86 39 42.66290
 2018-Sep-27 23:53 A   23 02 48.079561 -86 39 42.64491
 2018-Sep-27 23:54 A   23 02 48.018661 -86 39 42.62691
 2018-Sep-27 23:55 A   23 02 47.957758 -86 39 42.60890
 2018-Sep-27 23:56 A   23 02 47.896852 -86 39 42.59089
 2018-Sep-27 23:57 A   23 02 47.835943 -86 39 42.57288
 2018-Sep-27 23:58 A   23 02 47.775032 -86 39 42.55487
 2018-Sep-27 23:59 A   23 02 47.714119 -86 39 42.53685
 2018-Sep-28 00:00 A   23 02 47.653203 -86 39 42.51883
 2018-Sep-28 00:01 A   23 02 47.592284 -86 39 42.50081
 2018-Sep-28 00:02 A   23 02 47.531362 -86 39 42.48279
 2018-Sep-28 00:03     23 02 47.470438 -86 39 42.46476
 2018-Sep-28 00:04     23 02 47.409511 -86 39 42.44672
 2018-Sep-28 00:05     23 02 47.348582 -86 39 42.42869
 2018-Sep-28 00:06     23 02 47.287650 -86 39 42.41065
 2018-Sep-28 00:07     23 02 47.226716 -86 39 42.39261
 2018-Sep-28 00:08     23 02 47.165779 -86 39 42.37456
 2018-Sep-28 00:09     23 02 47.104840 -86 39 42.35652
 2018-Sep-28 00:10     23 02 47.043898 -86 39 42.33846
 2018-Sep-28 00:11     23 02 46.982953 -86 39 42.32041
 2018-Sep-28 00:12     23 02 46.922006 -86 39 42.30235
 2018-Sep-28 00:13     23 02 46.861057 -86 39 42.28429
 2018-Sep-28 00:14     23 02 46.800105 -86 39 42.26622
 2018-Sep-28 00:15     23 02 46.739150 -86 39 42.24816
 2018-Sep-28 00:16     23 02 46.678194 -86 39 42.23008
 2018-Sep-28 00:17     23 02 46.617234 -86 39 42.21201
 2018-Sep-28 00:18     23 02 46.556273 -86 39 42.19393
 2018-Sep-28 00:19     23 02 46.495309 -86 39 42.17585
 2018-Sep-28 00:20     23 02 46.434342 -86 39 42.15777
 2018-Sep-28 00:21     23 02 46.373373 -86 39 42.13968
 2018-Sep-28 00:22     23 02 46.312402 -86 39 42.12159
 2018-Sep-28 00:23     23 02 46.251429 -86 39 42.10349
 2018-Sep-28 00:24     23 02 46.190453 -86 39 42.08539
 2018-Sep-28 00:25     23 02 46.129475 -86 39 42.06729
 2018-Sep-28 00:26     23 02 46.068494 -86 39 42.04918
 2018-Sep-28 00:27     23 02 46.007511 -86 39 42.03108
 2018-Sep-28 00:28     23 02 45.946526 -86 39 42.01296
 2018-Sep-28 00:29     23 02 45.885539 -86 39 41.99485
 2018-Sep-28 00:30     23 02 45.824549 -86 39 41.97673
 2018-Sep-28 00:31     23 02 45.763557 -86 39 41.95861
 2018-Sep-28 00:32     23 02 45.702563 -86 39 41.94048
 2018-Sep-28 00:33     23 02 45.641566 -86 39 41.92235
 2018-Sep-28 00:34     23 02 45.580568 -86 39 41.90422
 2018-Sep-28 00:35     23 02 45.519567 -86 39 41.88608
 2018-Sep-28 00:36     23 02 45.458564 -86 39 41.86794
 2018-Sep-28 00:37     23 02 45.397559 -86 39 41.84980
 2018-Sep-28 00:38     23 02 45.336552 -86 39 41.83165
 2018-Sep-28 00:39     23 02 45.275542 -86 39 41.81350
 2018-Sep-28 00:40     23 02 45.214530 -86 39 41.79534
 2018-Sep-28 00:41     23 02 45.153517 -86 39 41.77719
 2018-Sep-28 00:42     23 02 45.092501 -86 39 41.75903
 2018-Sep-28 00:43     23 02 45.031483 -86 39 41.74086
 2018-Sep-28 00:44     23 02 44.970463 -86 39 41.72269
 2018-Sep-28 00:45     23 02 44.909441 -86 39 41.70452
 2018-Sep-28 00:46     23 02 44.848417 -86 39 41.68634
 2018-Sep-28 00:47     23 02 44.787390 -86 39 41.66816
 2018-Sep-28 00:48     23 02 44.726362 -86 39 41.64998
 2018-Sep-28 00:49     23 02 44.665332 -86 39 41.63179
 2018-Sep-28 00:50     23 02 44.604300 -86 39 41.61360
 2018-Sep-28 00:51     23 02 44.543266 -86 39 41.59541
 2018-Sep-28 00:52     23 02 44.482230 -86 39 41.57721
 2018-Sep-28 00:53     23 02 44.421191 -86 39 41.55901
